PHISAT 2                
1 60470U 24149C   26068.78834181  .00008925  00000+0  31421-3 0  9996
2 60470  97.3806 148.6498 0001175 168.6230 191.5037 15.29548631 86792
STARLINK-36445          
1 67313U 26002J   26068.09217221  .00027346  00000+0  99900-3 0  9997
2 67313  43.0014 328.9810 0001036 287.6942  72.3796 15.27599119 11143
